GALAXY 25 (G-25)        
1 24812U 97026A   22309.85814462 -.00000005  00000+0  00000+0 0  9999
2 24812   4.0397  82.1961 0005188 178.8460 159.0862  1.00272811 93145
INTELSAT 5 (IS-5)       
1 24916U 97046A   22309.68105014 -.00000063  00000+0  00000+0 0  9997
2 24916   7.5277  60.0493 0005779 173.0188 223.1964  1.00273805 92396
GALAXY 11 (G-11)        
1 26038U 99071A   22309.62833928 -.00000163  00000+0  00000+0 0  9991
2 26038   3.3731  85.7859 0002086 206.6464 245.5206  1.00270835 83858
INTELSAT 9 (IS-9)       
1 26451U 00043A   22309.98660562 -.00000288  00000+0  00000+0 0  9990
2 26451   7.5146  60.2325 0003956 170.4984 119.6602  1.00272323 81618
INTELSAT 1R (IS-1R)     
1 26608U 00072A   22310.31515275 -.00000137  00000+0  00000+0 0  9998
2 26608   4.7711  79.4182 0000600 241.2623 355.4043  1.00271280 80420
INTELSAT 10 (IS-10)     
1 26766U 01019A   22309.66508281  .00000034  00000+0  00000+0 0  9995
2 26766   5.9118  72.1347 0003960 161.2540 228.7210  1.00272233 32393
INTELSAT 901 (IS-901)   
1 26824U 01024A   22310.41325130 -.00000203  00000+0  00000+0 0  9990
2 26824   0.0264  79.3106 0001339 153.7731 293.7947  1.00268114 78363
INTELSAT 902 (IS-902)   
1 26900U 01039A   22309.83494931 -.00000283  00000+0  00000+0 0  9999
2 26900   2.7581  87.3928 0003282 155.0608  53.1018  1.00271466 77468
INTELSAT 904 (IS-904)   
1 27380U 02007A   22310.34113652 -.00000212  00000+0  00000+0 0  9996
2 27380   3.5905  84.3945 0003144 147.1603 267.3104  1.00274311 75869
DIRECTV 5 (TEMPO 1)     
1 27426U 02023A   22310.47117130 -.00000056  00000+0  00000+0 0  9990
2 27426   1.4861  91.4334 0003324 132.5731 241.1917  1.00272431 75086
INTELSAT 905 (IS-905)   
1 27438U 02027A   22310.34218293 -.00000184  00000+0  00000+0 0  9997
2 27438   3.4127  85.1159 0002733 138.0179 281.1116  1.00271371 74740
GALAXY 3C (G-3C)        
1 27445U 02030A   22310.37715384 -.00000153  00000+0  00000+0 0  9991
2 27445   0.3383  90.7047 0000839 208.0705 147.7428  1.00272369 74723
INTELSAT 906 (IS-906)   
1 27513U 02041A   22309.85770861  .00000013  00000+0  00000+0 0  9995
2 27513   2.4273  88.8125 0003455 147.6475 181.5382  1.00272461 73798
GALAXY 12 (G-12)        
1 27715U 03013B   22309.60395531  .00000057  00000+0  00000+0 0  9997
2 27715   3.6213  84.0523 0002165 156.7176 252.4618  1.00270787 38863
GALAXY 23 (G-23)        
1 27854U 03034A   22310.17998167  .00000011  00000+0  00000+0 0  9992
2 27854   0.0143 260.3819 0003312 336.3325 112.5020  1.00272412 75326
GALAXY 13 (HORIZONS-1)  
1 27954U 03044A   22310.03481073  .00000046  00000+0  00000+0 0  9990
2 27954   0.0350 105.2491 0000489 242.6632 302.8627  1.00272473 69925
INTELSAT 10-02          
1 28358U 04022A   22310.30882741 -.00000012  00000+0  00000+0 0  9997
2 28358   0.0043  18.9402 0000879 218.8160 277.9495  1.00270915 67404
XM-3 (RHYTHM)           
1 28626U 05008A   22310.38605365 -.00000206  00000+0  00000+0 0  9998
2 28626   0.0542 107.2085 0001762  75.0190 277.2686  1.00270716 64842
DIRECTV 8               
1 28659U 05019A   22310.22290715 -.00000001  00000+0  00000+0 0  9991
2 28659   0.0061 204.7569 0002985  35.6498 126.2347  1.00272122 63967
GALAXY 28 (G-28)        
1 28702U 05022A   22309.82718847 -.00000188  00000+0  00000+0 0  9995
2 28702   0.0196 326.4167 0002126 295.9335 351.4993  1.00272356 38756
GALAXY 14 (G-14)        
1 28790U 05030A   22309.85143019  .00000154  00000+0  00000+0 0  9999
2 28790   1.6175  90.6211 0002051 131.6263 162.2372  1.00272152 63076
GALAXY 15 (G-15)        
1 28884U 05041A   22309.67580847  .00000050  00000+0  00000+0 0  9994
2 28884   0.1693  90.9621 0003650 158.3975 270.3575  1.00300077 62386
SPACEWAY 2              
1 28903U 05046B   22310.21175337  .00000103  00000+0  00000+0 0  9996
2 28903   2.2274  86.4548 0000478 317.9507 298.3417  1.00272024 62276
GALAXY 16 (G-16)        
1 29236U 06023A   22310.39903760 -.00000128  00000+0  00000+0 0  9998
2 29236   0.0118 258.3387 0002712 325.0297 226.8883  1.00271892 60047
DIRECTV 9S              
1 29494U 06043A   22309.82465965 -.00000116  00000+0  00000+0 0  9999
2 29494   0.0135 216.0250 0003241  15.5163   9.1879  1.00272020 38151
XM-4 (BLUES)            
1 29520U 06049A   22309.54099657 -.00000209  00000+0  00000+0 0  9998
2 29520   0.0307 313.3858 0001579   7.1844 193.8241  1.00271081 38242
GALAXY 17 (G-17)        
1 31307U 07016B   22310.20674258 -.00000176  00000+0  00000+0 0  9993
2 31307   0.0433  66.6551 0002764 158.3237 163.8857  1.00270936 56853
DIRECTV 10              
1 31862U 07032A   22310.45811032 -.00000104  00000+0  00000+0 0  9998
2 31862   0.0417  98.8142 0000296  77.6648 291.3059  1.00272225 56181
SPACEWAY 3              
1 32018U 07036A   22310.21229707 -.00000153  00000+0  00000+0 0  9996
2 32018   0.5892  90.7592 0000205  54.3117 241.8216  1.00271648 55902
INTELSAT 11 (IS-11)     
1 32253U 07044B   22309.83634451 -.00000271  00000+0  00000+0 0  9999
2 32253   0.1446  92.6539 0002309 149.3473  61.1373  1.00271964 55260
HORIZONS-2              
1 32388U 07063B   22310.06369156 -.00000255  00000+0  00000+0 0  9995
2 32388   0.0039 270.7521 0002881 340.0272 103.6294  1.00272054 54655
DIRECTV 11              
1 32729U 08013A   22310.01299175 -.00000128  00000+0  00000+0 0  9997
2 32729   0.0007 288.9797 0000306 261.3003 120.4489  1.00270695 53709
GALAXY 18 (G-18)        
1 32951U 08024A   22310.45484531  .00000024  00000+0  00000+0 0  9990
2 32951   0.0186 275.8875 0003042 303.1380 227.3800  1.00272119 52862
INTELSAT 25 (IS-25)     
1 33153U 08034A   22310.11091102 -.00000226  00000+0  00000+0 0  9992
2 33153   0.0223 270.9512 0003137 312.9285 189.8587  1.00269539 52417
GALAXY 19 (G-19)        
1 33376U 08045A   22310.47123958 -.00000140  00000+0  00000+0 0  9990
2 33376   0.0170 269.7295 0002905 324.3501 244.2191  1.00269954 51618
FM-5                    
1 35493U 09034A   22310.38605347 -.00000202  00000+0  00000+0 0  9997
2 35493   0.0124 281.1958 0000193 229.7670 307.4841  1.00272665 48753
INTELSAT 14 (IS-14)     
1 36097U 09064A   22310.40985047 -.00000274  00000+0  00000+0 0  9991
2 36097   0.0007 135.7998 0002723  98.8436 273.5405  1.00272092 47479
INTELSAT 15 (IS-15)     
1 36106U 09067A   22310.07710294 -.00000187  00000+0  00000+0 0  9991
2 36106   0.0154 312.4565 0002347 269.4838 296.2659  1.00271572 47375
DIRECTV 12              
1 36131U 09075A   22310.45810947 -.00000104  00000+0  00000+0 0  9995
2 36131   0.0212 153.6318 0000127  67.8019 246.4418  1.00271681 47162
INTELSAT 16 (IS-16)     
1 36397U 10006A   22310.14702073 -.00000247  00000+0  00000+0 0  9999
2 36397   0.0126 303.0900 0002123 273.8251 165.1791  1.00271958 46496
XM-5                    
1 37185U 10053A   22310.22509876 -.00000024  00000+0  00000+0 0  9995
2 37185   0.0173 268.2758 0001303 285.6358 177.3355  1.00270368 44229
INTELSAT 17 (IS-17)     
1 37238U 10065B   22309.85805743 -.00000005  00000+0  00000+0 0  9995
2 37238   0.0184 245.5736 0002422 337.5135 196.8991  1.00271395 40002
INTELSAT NEW DAWN       
1 37392U 11016A   22309.85143019  .00000153  00000+0  00000+0 0  9997
2 37392   0.0480 106.6219 0001361 131.8361 145.9430  1.00273193 40058
INTELSAT 18 (IS-18)     
1 37834U 11056A   22310.54191275  .00000052  00000+0  00000+0 0  9995
2 37834   0.0375  27.8852 0001983 194.6523 198.3018  1.00270866 40627
INTELSAT 22 (IS-22)     
1 38098U 12011A   22310.07448692 -.00000061  00000+0  00000+0 0  9997
2 38098   0.0132 289.1365 0002862 293.3691 281.7146  1.00272748 38822
INTELSAT 19 (IS-19)     
1 38356U 12030A   22310.09314781 -.00000058  00000+0  00000+0 0  9994
2 38356   0.0132 272.5652 0003315 318.6738  13.5870  1.00271004 38280
INTELSAT 20 (IS-20)     
1 38740U 12043A   22310.53430579 -.00000025  00000+0  00000+0 0  9992
2 38740   0.0274 136.3895 0003303  55.3267 114.8884  1.00272306 37600
INTELSAT 21 (IS-21)     
1 38749U 12045A   22310.48795946 -.00000286  00000+0  00000+0 0  9998
2 38749   0.0046  51.4367 0002455 173.7186 298.2243  1.00272395 37412
INTELSAT 23 (IS-23)     
1 38867U 12057A   22309.83433890 -.00000287  00000+0  00000+0 0  9997
2 38867   0.0169 269.1883 0001034 123.0313 260.2046  1.00273613 36718
FM-6                    
1 39360U 13058A   22310.46230838 -.00000018  00000+0  00000+0 0  9998
2 39360   0.0314 280.0051 0000355 188.2455 347.7174  1.00270735 33120
INTELSAT 30 (IS-30)     
1 40271U 14062A   22310.39990962 -.00000152  00000+0  00000+0 0  9999
2 40271   0.0191 277.1992 0002138 183.0334 354.2932  1.00268969 29549
DIRECTV 14              
1 40333U 14078B   22310.47080359 -.00000126  00000+0  00000+0 0  9995
2 40333   0.0026 314.2856 0000132 253.5772 268.0827  1.00270206 29023
DIRECTV 15              
1 40663U 15026A   22308.96356288 -.00000108  00000+0  00000+0 0  9993
2 40663   0.0361 100.5412 0000413  64.2382 123.4330  1.00273592 27292
SKY MEXICO-1            
1 40664U 15026B   22310.14702073 -.00000236  00000+0  00000+0 0  9996
2 40664   0.0120 308.6759 0002124 273.3722 157.4834  1.00270570 27304
INTELSAT 34 (IS-34)     
1 40874U 15039A   22309.04424251 -.00000290  00000+0  00000+0 0  9999
2 40874   0.0159 259.2483 0000470 295.8377 169.5986  1.00269237 26388
INTELSAT 31 (IS-31)     
1 41581U 16035A   22309.42212257 -.00000155  00000+0  00000+0 0  9995
2 41581   0.0135 247.3446 0001885 327.9619 246.2458  1.00273540 23456
INTELSAT 36 (IS-36)     
1 41747U 16053A   22309.52208538 -.00000028  00000+0  00000+0 0  9996
2 41747   0.0110 317.8850 0001301  51.6965 291.6142  1.00270236 22714
INTELSAT 33E (IS-33E)   
1 41748U 16053B   22309.85683661  .00000046  00000+0  00000+0 0  9996
2 41748   0.0067 308.5317 0001698 275.0998 189.8925  1.00271513 23018
INTELSAT 32E (IS-32E)   
1 41945U 17007B   22309.33415709 -.00000273  00000+0  00000+0 0  9997
2 41945   0.0137 258.0249 0000361 270.6688 312.9605  1.00269074 21001
INTELSAT 35E (IS-35E)   
1 42818U 17041A   22309.83800132 -.00000241  00000+0  00000+0 0  9993
2 42818   0.0117 263.6057 0001805 319.4934  89.1194  1.00268796 19584
INTELSAT 37E (IS-37E)   
1 42950U 17059A   22310.41525690 -.00000142  00000+0  00000+0 0  9998
2 42950   0.0111 267.6278 0002895 319.3025 310.1685  1.00270208 18823
AZERSPACE 2 (IS-38)     
1 43632U 18074A   22307.48656522  .00000128  00000+0  00000+0 0  9999
2 43632   0.0108 225.8460 0001421   1.0539  36.1253  1.00272026 15198
HORIZONS-3E             
1 43633U 18074B   22310.38072552 -.00000032  00000+0  00000+0 0  9993
2 43633   0.0151  65.2733 0001889 221.3648  64.9917  1.00269546 15090
AT&T T-16               
1 44333U 19034A   22310.01299175 -.00000118  00000+0  00000+0 0  9995
2 44333   0.0576  83.2345 0000848 109.1323 116.6960  1.00272735 12404
INTELSAT 39 (IS-39)     
1 44476U 19049B   22307.15466118  .00000025  00000+0  00000+0 0  9999
2 44476   0.0194 262.9988 0000502 220.6948  36.3436  1.00270611 11884
GALAXY 30 (G-30)        
1 46114U 20056C   22309.67650608  .00000034  00000+0  00000+0 0  9998
2 46114   0.0216 268.8300 0002308 314.4560 300.1308  1.00270418  8062
